      2.10          N: GNSS NAV DATA                        RINEX VERSION / TYPE
fic2rin                                 06/15/2024 00:59:02 PGM / RUN BY / DATE
                                                            END OF HEADER
6  24  6 14  1 59 28.0  .219848472625D-03 -.211457518162D-10  .000000000000D+00
     .101000000000D+03  .113125000000D+02  .364729478161D-08  .110469770478D+01
     .733882188797D-06  .295497884508D-02  .816211104393D-05  .515363851357D+04
     .439168000000D+06  .931322574615D-07  .178390163832D+01 -.372529029846D-07
     .989529124969D+00  .236843750000D+03 -.693403219759D+00 -.768996317498D-08
     .143934566881D-09  .100000000000D+01  .231800000000D+04  .000000000000D+00
     .240000000000D+01  .000000000000D+00  .372529029846D-08  .101000000000D+03
     .432000000000D+06  .400000000000D+01
3  24  6 14  1 59 28.0  .412345863879D-03  .177351466846D-10  .000000000000D+00
     .109000000000D+03  .296875000000D+01  .424374819772D-08 -.242106816881D+00
     .141561031342D-06  .558928656392D-02  .605732202530D-05  .515370903969D+04
     .439168000000D+06 -.763684511185D-07  .282031649922D+01  .447034835815D-07
     .984925863053D+00  .281031250000D+03  .109967621361D+01 -.805462122159D-08
     .270725562521D-09  .100000000000D+01  .231800000000D+04  .000000000000D+00
     .240000000000D+01  .000000000000D+00  .139698386192D-08  .109000000000D+03
     .432000000000D+06  .400000000000D+01
2  24  6 14  2  0  0.0 -.418156385422D-03  .704858393874D-11  .000000000000D+00
     .450000000000D+02  .890625000000D+01  .406909806570D-08 -.298042163608D+01
     .441446900368D-06  .159807190066D-01  .843033194542D-05  .515370474625D+04
     .439200000000D+06  .139698386192D-06  .168517177826D+01  .188127160072D-06
     .967136814319D+00  .212843750000D+03 -.117531401712D+01 -.768782022857D-08
     .842892252703D-10  .100000000000D+01  .231800000000D+04  .000000000000D+00
     .240000000000D+01  .000000000000D+00 -.176951289177D-07  .450000000000D+02
     .432000000000D+06  .400000000000D+01
1  24  6 14  2  0  0.0  .259971246123D-03 -.602540239925D-11  .000000000000D+00
     .860000000000D+02  .450625000000D+02  .594239038155D-08 -.176094712094D+01
     .236369669437D-05  .133774025599D-01  .656582415104D-05  .515376561356D+04
     .439200000000D+06  .311061739922D-06 -.308879967348D+00 -.856816768646D-07
     .954544308076D+00  .249531250000D+03  .103076441735D+01 -.800069040373D-08
    -.785747015231D-11  .100000000000D+01  .231800000000D+04  .000000000000D+00
     .340000000000D+01  .630000000000D+02 -.195577740669D-07  .860000000000D+02
     .432000000000D+06  .400000000000D+01
5  24  6 14  2  0  0.0 -.176236033440D-03 -.136424205266D-11  .000000000000D+00
     .350000000000D+02  .100000000000D+01  .442947021950D-08 -.283747930491D+01
    -.225380063057D-06  .590533798095D-02  .535324215889D-05  .515362847900D+04
     .439200000000D+06  .137835741043D-06  .276875652937D+01 -.111758708954D-07
     .971856138303D+00  .280125000000D+03  .126416753582D+01 -.803604901941D-08
     .281083136812D-09  .100000000000D+01  .231800000000D+04  .000000000000D+00
     .240000000000D+01  .000000000000D+00 -.107102096081D-07  .350000000000D+02
     .432000000000D+06  .400000000000D+01
4  24  6 14  2  0  0.0  .382678117603D-03  .807176547823D-11  .000000000000D+00
     .430000000000D+02 -.592500000000D+02  .467126600555D-08  .274737461966D+01
    -.300630927086D-05  .284027412999D-02  .685080885887D-05  .515373847008D+04
     .439200000000D+06 -.298023223877D-07 -.238484024898D+01 -.931322574615D-08
     .965070751208D+00  .252781250000D+03 -.295258548688D+01 -.807676500111D-08
    -.717887045734D-10  .100000000000D+01  .231800000000D+04  .000000000000D+00
     .240000000000D+01  .000000000000D+00 -.465661287308D-08  .430000000000D+02
     .432000000000D+06  .400000000000D+01
23 24  6 15  0  0  0.0  .250464305282D-03  .920863385545D-11  .000000000000D+00
     .199000000000D+03  .596875000000D+01  .427017787005D-08 -.109915083584D+01
     .318512320518D-06  .423502584454D-02  .707432627678D-05  .515371712685D+04
     .518400000000D+06  .633299350739D-07  .278806152111D+01 -.335276126862D-07
     .979729920358D+00  .252125000000D+03 -.296876634099D+01 -.795818863336D-08
     .389659088008D-09  .100000000000D+01  .231800000000D+04  .000000000000D+00
     .240000000000D+01  .000000000000D+00 -.838190317154D-08  .199000000000D+03
     .511200000000D+06  .400000000000D+01
28 24  6 15  0  0  0.0 -.289117917418D-03 -.168256519828D-10  .000000000000D+00
     .227000000000D+03 -.164062500000D+02  .438732560686D-08 -.209915757466D+01
    -.899657607079D-06  .306893256493D-03  .103544443846D-04  .515366727638D+04
     .518400000000D+06  .260770320892D-07 -.140546472784D+01 -.745058059692D-08
     .961010701496D+00  .181406250000D+03  .161964519199D+01 -.789604318761D-08
    -.255367779950D-09  .100000000000D+01  .231800000000D+04  .000000000000D+00
     .240000000000D+01  .000000000000D+00 -.931322574615D-08  .995000000000D+03
     .511200000000D+06  .400000000000D+01
18 24  6 15  0  0  0.0 -.624982640147D-03 -.488853402203D-11  .000000000000D+00
     .175000000000D+03 -.165312500000D+02  .408802742561D-08  .114123980236D+00
    -.789761543274D-06  .420673086774D-02  .881776213646D-05  .515361063576D+04
     .518400000000D+06  .614672899246D-07  .178710224268D+01  .204890966415D-07
     .974364868722D+00  .216312500000D+03 -.305392473490D+01 -.794568811266D-08
     .650027076237D-10  .100000000000D+01  .231800000000D+04  .000000000000D+00
     .240000000000D+01  .000000000000D+00 -.838190317154D-08  .943000000000D+03
     .511200000000D+06  .400000000000D+01
14 24  6 15  1 14 40.0  .425611156970D-03  .909494701773D-11  .000000000000D+00
     .117000000000D+03  .527500000000D+02  .479877131666D-08 -.898451923969D+00
     .263005495071D-05  .458194676321D-02  .715069472790D-05  .515369949150D+04
     .522880000000D+06  .124797224998D-06 -.301617736252D+00 -.800937414169D-07
     .945844565400D+00  .236750000000D+03 -.289256618153D+01 -.821677083292D-08
    -.457161899771D-10  .100000000000D+01  .231800000000D+04  .000000000000D+00
     .240000000000D+01  .000000000000D+00 -.791624188423D-08  .629000000000D+03
     .515700000000D+06  .400000000000D+01
6  24  6 14 23 59 44.0  .218169763684D-03 -.212594386539D-10  .000000000000D+00
     .150000000000D+02 -.100000000000D+02  .375622789054D-08  .921294355494D-01
    -.482425093651D-06  .295129709411D-02  .795535743237D-05  .515363944435D+04
     .518384000000D+06 -.149011611938D-07  .178329095487D+01 -.353902578354D-07
     .989526067470D+00  .236375000000D+03 -.692711016663D+00 -.778746723641D-08
     .792890169915D-10  .100000000000D+01  .231800000000D+04  .000000000000D+00
     .240000000000D+01  .000000000000D+00  .372529029846D-08  .150000000000D+02
     .516810000000D+06  .400000000000D+01
